{"type": "FeatureCollection", "features": [ {"type": "Feature", "properties": {"norad_id": 34141, "name": "COSMOS 2251 DEB", "group": "cosmos-2251-debris", "lat": 12.48690313501292, "lon": -172.87818814880208, "alt_km": 719.0178663375309, "timestamp": "2025-12-22T08:58:20.756554+00:00", "meta": {"OBJECT_NAME": "COSMOS 2251 DEB", "OBJECT_ID": "1993-036LN", "EPOCH": "2025-12-21T07:25:33.142368", "MEAN_MOTION": 14.49318951, "ECCENTRICITY": 0.0046552, "INCLINATION": 74.0107, "RA_OF_ASC_NODE": 12.7614, "ARG_OF_PERICENTER": 95.9283, "MEAN_ANOMALY": 278.9267, "EPHEMERIS_TYPE": 0, "CLASSIFICATION_TYPE": "U", "NORAD_CAT_ID": 34141, "ELEMENT_SET_NO": 999, "REV_AT_EPOCH": 87818, "BSTAR": 0.00099365, "MEAN_MOTION_DOT": 3.82e-05, "MEAN_MOTION_DDOT": 0}, "tle": {"line1": "1 34141U 93036LN  25355.30941137  .00003820  00000+0  99365-3 0  9999", "line2": "2 34141  74.0107  12.7614 0046552  95.9283 278.9267 14.49318951878181"}}, "geometry": {"type": "Point", "coordinates": [-172.87818814880208, 12.48690313501292]}}, {"type": "Feature", "properties": {"norad_id": 34270, "name": "COSMOS 2251 DEB", "group": "cosmos-2251-debris", "lat": -43.914014322379316, "lon": -87.96296281903425, "alt_km": 701.4746552493098, "timestamp": "2025-12-22T08:58:20.756564+00:00", "meta": {"OBJECT_NAME": "COSMOS 2251 DEB", "OBJECT_ID": "1993-036LQ", "EPOCH": "2025-12-22T02:37:42.973824", "MEAN_MOTION": 14.65236943, "ECCENTRICITY": 0.0047935, "INCLINATION": 74.0118, "RA_OF_ASC_NODE": 288.5705, "ARG_OF_PERICENTER": 78.5407, "MEAN_ANOMALY": 282.1139, "EPHEMERIS_TYPE": 0, "CLASSIFICATION_TYPE": "U", "NORAD_CAT_ID": 34270, "ELEMENT_SET_NO": 999, "REV_AT_EPOCH": 89233, "BSTAR": 0.00067434, "MEAN_MOTION_DOT": 3.665e-05, "MEAN_MOTION_DDOT": 0}, "tle": {"line1": "1 34270U 93036LQ  25356.10952516  .00003665  00000+0  67434-3 0  9993", "line2": "2 34270  74.0118 288.5705 0047935  78.5407 282.1139 14.65236943892337"}}, "geometry": {"type": "Point", "coordinates": [-87.96296281903425, -43.914014322379316]}}, {"type": "Feature", "properties": {"norad_id": 34271, "name": "COSMOS 2251 DEB", "group": "cosmos-2251-debris", "lat": 72.9049416376798, "lon": -68.11334635082308, "alt_km": 660.189812178056, "timestamp": "2025-12-22T08:58:20.756574+00:00", "meta": {"OBJECT_NAME": "COSMOS 2251 DEB", "OBJECT_ID": "1993-036LR", "EPOCH": "2025-12-21T23:25:58.547712", "MEAN_MOTION": 14.70946121, "ECCENTRICITY": 0.0018321, "INCLINATION": 74.0191, "RA_OF_ASC_NODE": 181.3785, "ARG_OF_PERICENTER": 234.6959, "MEAN_ANOMALY": 277.6102, "EPHEMERIS_TYPE": 0, "CLASSIFICATION_TYPE": "U", "NORAD_CAT_ID": 34271, "ELEMENT_SET_NO": 999, "REV_AT_EPOCH": 88370, "BSTAR": 0.0020889, "MEAN_MOTION_DOT": 0.00012827, "MEAN_MOTION_DDOT": 0}, "tle": {"line1": "1 34271U 93036LR  25355.97637208  .00012827  00000+0  20889-2 0  9998", "line2": "2 34271  74.0191 181.3785 0018321 234.6959 277.6102 14.70946121883703"}}, "geometry": {"type": "Point", "coordinates": [-68.11334635082308, 72.9049416376798]}}, {"type": "Feature", "properties": {"norad_id": 34273, "name": "COSMOS 2251 DEB", "group": "cosmos-2251-debris", "lat": 35.01505528379391, "lon": -122.5612023107113, "alt_km": 680.2712821497425, "timestamp": "2025-12-22T08:58:20.756584+00:00", "meta": {"OBJECT_NAME": "COSMOS 2251 DEB", "OBJECT_ID": "1993-036LT", "EPOCH": "2025-12-21T04:31:13.266336", "MEAN_MOTION": 14.6129347, "ECCENTRICITY": 0.0013647, "INCLINATION": 74.0363, "RA_OF_ASC_NODE": 71.2735, "ARG_OF_PERICENTER": 197.1712, "MEAN_ANOMALY": 192.2467, "EPHEMERIS_TYPE": 0, "CLASSIFICATION_TYPE": "U", "NORAD_CAT_ID": 34273, "ELEMENT_SET_NO": 999, "REV_AT_EPOCH": 88745, "BSTAR": 0.0005508011, "MEAN_MOTION_DOT": 2.694e-05, "MEAN_MOTION_DDOT": 0}, "tle": {"line1": "1 34273U 93036LT  25355.18834799  .00002694  00000+0  55080-3 0  9990", "line2": "2 34273  74.0363  71.2735 0013647 197.1712 192.2467 14.61293470887458"}}, "geometry": {"type": "Point", "coordinates": [-122.5612023107113, 35.01505528379391]}}, {"type": "Feature", "properties": {"norad_id": 34274, "name": "COSMOS 2251 DEB", "group": "cosmos-2251-debris", "lat": -10.253358111474215, "lon": 47.03125892591725, "alt_km": 694.4923886731804, "timestamp": "2025-12-22T08:58:20.756594+00:00", "meta": {"OBJECT_NAME": "COSMOS 2251 DEB", "OBJECT_ID": "1993-036LU", "EPOCH": "2025-12-21T13:40:27.055776", "MEAN_MOTION": 14.64873865, "ECCENTRICITY": 0.0021536, "INCLINATION": 74.0039, "RA_OF_ASC_NODE": 51.5544, "ARG_OF_PERICENTER": 201.1646, "MEAN_ANOMALY": 229.4694, "EPHEMERIS_TYPE": 0, "CLASSIFICATION_TYPE": "U", "NORAD_CAT_ID": 34274, "ELEMENT_SET_NO": 999, "REV_AT_EPOCH": 88805, "BSTAR": 0.0007569, "MEAN_MOTION_DOT": 4.029e-05, "MEAN_MOTION_DDOT": 0}, "tle": {"line1": "1 34274U 93036LU  25355.56975759  .00004029  00000+0  75690-3 0  9998", "line2": "2 34274  74.0039  51.5544 0021536 201.1646 229.4694 14.64873865888053"}}, "geometry": {"type": "Point", "coordinates": [47.03125892591725, -10.253358111474215]}}, {"type": "Feature", "properties": {"norad_id": 34276, "name": "COSMOS 2251 DEB", "group": "cosmos-2251-debris", "lat": 23.239165910052666, "lon": 74.07055803729598, "alt_km": 716.7327946845071, "timestamp": "2025-12-22T08:58:20.756604+00:00", "meta": {"OBJECT_NAME": "COSMOS 2251 DEB", "OBJECT_ID": "1993-036LW", "EPOCH": "2025-12-21T23:47:17.316096", "MEAN_MOTION": 14.57284799, "ECCENTRICITY": 0.0022254, "INCLINATION": 74.0239, "RA_OF_ASC_NODE": 67.7315, "ARG_OF_PERICENTER": 213.6612, "MEAN_ANOMALY": 323.8377, "EPHEMERIS_TYPE": 0, "CLASSIFICATION_TYPE": "U", "NORAD_CAT_ID": 34276, "ELEMENT_SET_NO": 999, "REV_AT_EPOCH": 88727, "BSTAR": 0.00065538, "MEAN_MOTION_DOT": 2.946e-05, "MEAN_MOTION_DDOT": 0}, "tle": {"line1": "1 34276U 93036LW  25355.99117264  .00002946  00000+0  65538-3 0  9992", "line2": "2 34276  74.0239  67.7315 0022254 213.6612 323.8377 14.57284799887275"}}, "geometry": {"type": "Point", "coordinates": [74.07055803729598, 23.239165910052666]}}, {"type": "Feature", "properties": {"norad_id": 34297, "name": "COSMOS 2251 DEB", "group": "cosmos-2251-debris", "lat": 39.87646293744835, "lon": -79.63377158094036, "alt_km": 761.5345373611945, "timestamp": "2025-12-22T08:58:20.756614+00:00", "meta": {"OBJECT_NAME": "COSMOS 2251 DEB", "OBJECT_ID": "1993-036MT", "EPOCH": "2025-12-22T04:18:39.400416", "MEAN_MOTION": 14.36637051, "ECCENTRICITY": 0.0017648, "INCLINATION": 74.0488, "RA_OF_ASC_NODE": 266.8987, "ARG_OF_PERICENTER": 333.8345, "MEAN_ANOMALY": 143.7561, "EPHEMERIS_TYPE": 0, "CLASSIFICATION_TYPE": "U", "NORAD_CAT_ID": 34297, "ELEMENT_SET_NO": 999, "REV_AT_EPOCH": 88200, "BSTAR": 0.00012925, "MEAN_MOTION_DOT": 3.55e-06, "MEAN_MOTION_DDOT": 0}, "tle": {"line1": "1 34297U 93036MT  25356.17962269  .00000355  00000+0  12925-3 0  9993", "line2": "2 34297  74.0488 266.8987 0017648 333.8345 143.7561 14.36637051882000"}}, "geometry": {"type": "Point", "coordinates": [-79.63377158094036, 39.87646293744835]}}, {"type": "Feature", "properties": {"norad_id": 34299, "name": "COSMOS 2251 DEB", "group": "cosmos-2251-debris", "lat": 41.00565712227405, "lon": -33.34481291196817, "alt_km": 249.86450802393028, "timestamp": "2025-12-22T08:58:20.756624+00:00", "meta": {"OBJECT_NAME": "COSMOS 2251 DEB", "OBJECT_ID": "1993-036MV", "EPOCH": "2025-12-21T22:19:02.044128", "MEAN_MOTION": 16.02107742, "ECCENTRICITY": 0.0010885, "INCLINATION": 73.9654, "RA_OF_ASC_NODE": 313.2328, "ARG_OF_PERICENTER": 112.7129, "MEAN_ANOMALY": 247.5262, "EPHEMERIS_TYPE": 0, "CLASSIFICATION_TYPE": "U", "NORAD_CAT_ID": 34299, "ELEMENT_SET_NO": 999, "REV_AT_EPOCH": 89156, "BSTAR": 0.0079598, "MEAN_MOTION_DOT": 0.03689598, "MEAN_MOTION_DDOT": 0.021229}, "tle": {"line1": "1 34299U 93036MV  25355.92988477  .03689598  21229-1  79598-2 0  9997", "line2": "2 34299  73.9654 313.2328 0010885 112.7129 247.5262 16.02107742891567"}}, "geometry": {"type": "Point", "coordinates": [-33.34481291196817, 41.00565712227405]}}, {"type": "Feature", "properties": {"norad_id": 34301, "name": "COSMOS 2251 DEB", "group": "cosmos-2251-debris", "lat": -34.473743159456454, "lon": -21.093291873992683, "alt_km": 612.2741009980955, "timestamp": "2025-12-22T08:58:20.756634+00:00", "meta": {"OBJECT_NAME": "COSMOS 2251 DEB", "OBJECT_ID": "1993-036MX", "EPOCH": "2025-12-21T21:15:05.172192", "MEAN_MOTION": 14.8495949, "ECCENTRICITY": 0.0010433, "INCLINATION": 74.0053, "RA_OF_ASC_NODE": 148.5192, "ARG_OF_PERICENTER": 210.8057, "MEAN_ANOMALY": 275.4471, "EPHEMERIS_TYPE": 0, "CLASSIFICATION_TYPE": "U", "NORAD_CAT_ID": 34301, "ELEMENT_SET_NO": 999, "REV_AT_EPOCH": 88536, "BSTAR": 0.0032492, "MEAN_MOTION_DOT": 0.00027797, "MEAN_MOTION_DDOT": 0}, "tle": {"line1": "1 34301U 93036MX  25355.88547653  .00027797  00000+0  32492-2 0  9991", "line2": "2 34301  74.0053 148.5192 0010433 210.8057 275.4471 14.84959490885369"}}, "geometry": {"type": "Point", "coordinates": [-21.093291873992683, -34.473743159456454]}}, {"type": "Feature", "properties": {"norad_id": 34302, "name": "COSMOS 2251 DEB", "group": "cosmos-2251-debris", "lat": 9.58418727157364, "lon": -76.79315814961262, "alt_km": 810.0651229218001, "timestamp": "2025-12-22T08:58:20.756645+00:00", "meta": {"OBJECT_NAME": "COSMOS 2251 DEB", "OBJECT_ID": "1993-036MY", "EPOCH": "2025-12-21T11:02:15.727200", "MEAN_MOTION": 14.39361117, "ECCENTRICITY": 0.00792713, "INCLINATION": 74.178, "RA_OF_ASC_NODE": 107.6232, "ARG_OF_PERICENTER": 320.4246, "MEAN_ANOMALY": 156.1005, "EPHEMERIS_TYPE": 0, "CLASSIFICATION_TYPE": "U", "NORAD_CAT_ID": 34302, "ELEMENT_SET_NO": 999, "REV_AT_EPOCH": 87846, "BSTAR": 0.00046945234, "MEAN_MOTION_DOT": 1.488e-05, "MEAN_MOTION_DDOT": 0}, "tle": {"line1": "1 34302U 93036MY  25355.45990425  .00001488  00000+0  46945-3 0  9992", "line2": "2 34302  74.1780 107.6232 0079271 320.4246 156.1005 14.39361117878466"}}, "geometry": {"type": "Point", "coordinates": [-76.79315814961262, 9.58418727157364]}}]}